BEIDOU-2 IGSO-5         
1 37948U 11073A   26183.72937883 -.00000128  00000+0  00000+0 0  9990
2 37948  47.6496 271.3544 0114527 222.0502 141.5350  1.00270596 53296
LUCH-5A                 
1 37951U 11074B   26198.87130957 -.00000061  00000+0  00000+0 0  9990
2 37951   8.8300  73.3548 0002708  60.3084 282.6929  1.00273626 53355
BEIDOU-2 G5             
1 38091U 12008A   26198.98100418  .00000047  00000+0  00000+0 0  9998
2 38091   3.6488  69.5023 0007293 268.9390   9.1611  1.00271104 52679
BEIDOU-2 M3             
1 38250U 12018A   26198.79533443 -.00000087  00000+0  00000+0 0  9998
2 38250  55.7296 303.8435 0021044 272.1726  87.6188  1.86229645 96510
BEIDOU-2 M4             
1 38251U 12018B   26197.65376425 -.00000078  00000+0  00000+0 0  9998
2 38251  55.6306 303.0936 0012145 272.2408  87.6521  1.86229271 96493
SES-5                   
1 38652U 12036A   26199.21016951  .00000025  00000+0  00000+0 0  9993
2 38652   0.0433 324.7505 0001929 152.9947 258.9016  1.00271805 44766
BEIDOU-2 M6             
1 38775U 12050B   26198.97421240 -.00000062  00000+0  00000+0 0  9990
2 38775  56.5713  61.8766 0012811   1.9822 358.0915  1.86230950 93881
GSAT-10                 
1 38779U 12051B   26198.99717131 -.00000174  00000+0  00000+0 0  9998
2 38779   0.0834 264.3769 0007482 190.6261 282.7825  1.00272761 50403
NAVSTAR 67 (USA 239)    
1 38833U 12053A   26198.72871586  .00000022  00000+0  00000+0 0  9998
2 38833  53.5899 142.3481 0182182  66.2680 295.6020  2.00567979100054
GSAT0103 (GALILEO-FM3)  
1 38857U 12055A   26197.21850469 -.00000026  00000+0  00000+0 0  9991
2 38857  55.8227 100.7486 0003594 314.9576  45.0469  1.70473424 85502
BEIDOU-2 G6             
1 38953U 12059A   26198.96114891 -.00000186  00000+0  00000+0 0  9994
2 38953   4.4975  73.1882 0008767 327.1485 325.4488  1.00273227 50212
LUCH-5B                 
1 38977U 12061A   26198.90621115 -.00000150  00000+0  00000+0 0  9990
2 38977  10.5487  49.5742 0003845 147.3176  48.7710  1.00270306 49910
COSMOS 2485 [GLONASS-M] 
1 39155U 13019A   26198.41189181 -.00000024  00000+0  00000+0 0  9991
2 39155  65.4363  72.5906 0022584 230.9016 128.9717  2.13103096102927
NAVSTAR 68 (USA 242)    
1 39166U 13023A   26199.09508905 -.00000033  00000+0  00000+0 0  9992
2 39166  54.4806 267.7131 0141385  51.1121 310.2133  2.00563355 96506
IRNSS-1A                
1 39199U 13034A   26191.72043649  .00000047  00000+0  00000+0 0  9995
2 39199  35.7704  63.5328 0017567 183.4462 356.2994  1.00281941 47601
NAVSTAR 69 (USA 248)    
1 39533U 14008A   26199.09693287  .00000029  00000+0  00000+0 0  9996
2 39533  53.6580 148.0590 0084062 231.5632 127.6506  2.00561763 90300
ASTRA 5B                
1 39617U 14011B   26199.27058775  .00000129  00000+0  00000+0 0  9991
2 39617   0.0700 305.5527 0001995 179.2891 292.0954  1.00269805 44979
COSMOS 2492 [GLONASS-M] 
1 39620U 14012A   26197.43221882 -.00000064  00000+0  00000+0 0  9992
2 39620  65.2787 312.9423 0010294 317.3344  42.6017  2.13103163 95860
IRNSS-1B                
1 39635U 14017A   26198.70639336  .00000120  00000+0  00000+0 0  9993
2 39635  28.8716 239.8770 0022253 191.9011 173.2190  1.00276558 45109
LUCH-5V                 
1 39727U 14023A   26199.03636350 -.00000279  00000+0  00000+0 0  9998
2 39727   5.2074  69.4219 0002079  84.4887 249.7582  1.00272656 44662
NAVSTAR 70 (USA 251)    
1 39741U 14026A   26198.87448836 -.00000100  00000+0  00000+0 0  9991
2 39741  56.4817 330.3232 0038155 325.7125  34.0431  2.00558723 89150
COSMOS 2500 [GLONASS-M] 
1 40001U 14032A   26198.54011649 -.00000068  00000+0  00000+0 0  9994
2 40001  65.2130 312.6492 0008348 190.7929 169.2087  2.13105727 94106
NAVSTAR 71 (USA 256)    
1 40105U 14045A   26198.46758160 -.00000030  00000+0  00000+0 0  9999
2 40105  55.3728  87.2585 0034528 118.4118 241.9927  2.00560402 86684
GSAT0201 (GALILEO 5)    
1 40128U 14050A   26196.98314951 -.00000037  00000+0  00000+0 0  9998
2 40128  48.8430 272.2541 1678709 180.5497 179.3011  1.85519415 78858
GSAT0202 (GALILEO 6)    
1 40129U 14050B   26198.85553230 -.00000054  00000+0  00000+0 0  9991
2 40129  48.8588 271.2629 1680174 181.3093 178.2437  1.85520332 81055
IRNSS-1C                
1 40269U 14061A   26198.71202700 -.00000174  00000+0  00000+0 0  9999
2 40269   6.5925  88.3505 0022019   5.7430 180.8130  1.00271928 42997
NAVSTAR 72 (USA 258)    
1 40294U 14068A   26198.83453223 -.00000083  00000+0  00000+0 0  9994
2 40294  57.0087  29.7751 0067425  72.3845 288.3896  2.00553365 85828
COSMOS 2501 [GLONASS-K] 
1 40315U 14075A   26195.04843601  .00000065  00000+0  00000+0 0  9998
2 40315  63.6185 189.4424 0022586 212.6579 147.2095  2.13101105 90428
NAVSTAR 73 (USA 260)    
1 40534U 15013A   26198.97603834  .00000044  00000+0  00000+0 0  9998
2 40534  53.1659 202.9042 0110469  40.4150 320.4084  2.00549510 82446
GSAT0203 (GALILEO 7)    
1 40544U 15017A   26198.12850752 -.00000104  00000+0  00000+0 0  9991
2 40544  56.7761 340.7804 0002702 254.9804 104.9775  1.70476213 69717
GSAT0204 (GALILEO 8)    
1 40545U 15017B   26198.38438175 -.00000104  00000+0  00000+0 0  9991
2 40545  56.7837 340.7922 0002860 234.6029 125.3588  1.70475773 32766
